STARLINK-32556          
1 61858U 24202P   26068.46196539 -.00000709  00000+0 -16253-4 0  9991
2 61858  43.0009 239.2027 0001320 255.5118 104.5587 15.27573886 75301
HAWK-11A                
1 62382U 24247F   26068.51231358  .00009457  00000+0  34106-3 0  9991
2 62382  44.9941 114.3328 0005466 327.3713  32.6832 15.28849427 67741
